ORBCOMM FM24            
1 25478U 98053D   24206.90594579  .00002520  00000+0  90771-3 0  9998
2 25478  45.0092  18.6357 0000485  84.2739 275.8164 14.35995815350368
ORBCOMM FM25            
1 25479U 98053E   24206.87327012  .00002979  00000+0  10642-2 0  9997
2 25479  45.0085  17.0401 0002910  59.7901 300.3234 14.35982710350651
ORBCOMM FM26            
1 25480U 98053F   24206.84061410  .00002130  00000+0  78423-3 0  9994
2 25480  45.0081  11.6441 0005209  77.9718 282.1713 14.35374644350587
ORBCOMM FM27            
1 25481U 98053G   24206.86202694  .00002711  00000+0  97312-3 0  9991
2 25481  45.0069  17.3541 0001406 186.7812 173.3017 14.35968623350626
ORBCOMM FM28            
1 25482U 98053H   24206.82626342  .00002323  00000+0  83402-3 0  9992
2 25482  45.0065 315.7470 0002903 128.2063 231.9046 14.36382842351258
ORBCOMM FM30            
1 25980U 99065A   24206.37787379  .00001977  00000+0  72945-3 0  9991
2 25980  45.0304 199.4317 0004814 185.8104 174.2689 14.35501532287317
ORBCOMM FM31            
1 25981U 99065B   24206.41325248  .00001910  00000+0  70678-3 0  9998
2 25981  45.0217 192.9056 0003239 230.0520 130.0044 14.35492350286876
ORBCOMM FM32            
1 25982U 99065C   24206.44692470  .00002170  00000+0  81191-3 0  9997
2 25982  45.0137 207.0826 0005531 217.3985 142.6478 14.34500234287502
